     2.10           N: GPS NAV DATA                         RINEX VERSION / TYPE
teqc  2013Mar15     Kim Kangas          20140422 23:30:02UTCPGM / RUN BY / DATE
    3.4459D-08  4.7432D-09 -1.8118D-08 -1.9223D-09          ION ALPHA
    1.3722D+05  1.0430D+04 -2.6561D+04  1.0568D+04          ION BETA
    5.587935447690D-09 1.065814103640D-14    61440     1789 DELTA-UTC: A0,A1,T,W
    16                                                      LEAP SECONDS
Solaris x86 5.10|AMD64|cc SC5.8 -xarch=amd64|=+|=+          COMMENT
     2.10           NAVIGATION                              COMMENT
hgextrnav           Kim Kangas          04/22/2014 23:13:04 COMMENT
                                                            END OF HEADER
28 14  4 20  0  0  0.0 3.485763445500D-04 2.842170943040D-12 0.000000000000D+00
    5.000000000000D+00-9.493750000000D+01 3.955164748490D-09 2.714611202910D+00
   -4.921108484270D-06 1.913671114020D-02 5.936250090600D-06 5.153674095150D+03
    0.000000000000D+00 1.899898052220D-07-3.102983285990D+00-2.570450305940D-07
    9.866633518380D-01 2.750937500000D+02-1.717067390540D+00-7.612817104390D-09
   -2.392956819110D-10 1.000000000000D+00 1.789000000000D+03 0.000000000000D+00
    2.400000000000D+00 0.000000000000D+00-1.071020960810D-08 5.000000000000D+00
   -7.194000000000D+03 4.000000000000D+00
19 14  4 19 23 59 44.0-4.520430229600D-04-2.273736754430D-12 0.000000000000D+00
    1.000000000000D+00-3.978125000000D+01 4.497330189000D-09 1.088761153600D+00
   -1.711770892140D-06 1.018611411560D-02 9.823590517040D-06 5.153603466030D+03
    6.047840000000D+05 2.980232238770D-08-1.905377195910D+00 1.378357410430D-07
    9.652413625660D-01 1.925625000000D+02 4.148834209880D-01-8.018191132700D-09
    1.185763677530D-10 1.000000000000D+00 1.788000000000D+03 0.000000000000D+00
    2.400000000000D+00 0.000000000000D+00-1.490116119380D-08 1.000000000000D+00
    5.989860000000D+05 4.000000000000D+00
 1 14  4 20  0  0  0.0 9.246636182070D-06 1.477928890380D-12 0.000000000000D+00
    6.900000000000D+01 4.062500000000D+00 4.787342269160D-09-2.585307728670D-01
    5.587935447690D-08 2.913116011770D-03 6.860122084620D-06 5.153675745010D+03
    0.000000000000D+00 2.980232238770D-08-1.066994057570D+00 1.303851604460D-08
    9.605761884940D-01 2.457812500000D+02 3.149242138120D-01-8.173554747080D-09
    8.536069847290D-11 1.000000000000D+00 1.789000000000D+03 0.000000000000D+00
    2.400000000000D+00 0.000000000000D+00 5.587935447690D-09 6.900000000000D+01
   -4.554000000000D+03 4.000000000000D+00
11 14  4 20  0  0  0.0-4.821177572010D-04-3.183231456210D-12 0.000000000000D+00
    4.400000000000D+01 1.165625000000D+01 6.504199497440D-09-7.095103208560D-01
    7.525086402890D-07 1.484892435840D-02 7.433816790580D-06 5.153696395870D+03
    0.000000000000D+00-1.545995473860D-07-1.388294402750D+00 1.750886440280D-07
    8.900329299010D-01 1.977500000000D+02 1.277804176440D+00-9.213240911320D-09
    2.521533603420D-10 1.000000000000D+00 1.789000000000D+03 0.000000000000D+00
    2.400000000000D+00 0.000000000000D+00-1.210719347000D-08 4.400000000000D+01
   -2.754000000000D+03 4.000000000000D+00
17 14  4 20  0  0  0.0-8.645467460160D-05-3.069544618480D-12 0.000000000000D+00
    7.500000000000D+01-4.271875000000D+01 4.237319358500D-09 1.855339197750D+00
   -2.406537532810D-06 9.296644013380D-03 1.047179102900D-05 5.153581960680D+03
    0.000000000000D+00-1.508742570880D-07-2.076734481290D+00-1.974403858180D-07
    9.681421038280D-01 1.847187500000D+02-2.103769722340D+00-7.808539542730D-09
    2.103659054410D-10 1.000000000000D+00 1.789000000000D+03 0.000000000000D+00
    2.400000000000D+00 0.000000000000D+00-1.024454832080D-08 7.500000000000D+01
   -1.854000000000D+03 4.000000000000D+00
26 14  4 20  0  0  0.0 1.036343164740D-04-1.148237060990D-11 0.000000000000D+00
    4.100000000000D+01 8.753125000000D+01 4.084098690530D-09 6.523925277270D-01
    4.533678293230D-06 2.145102515350D-02 9.365379810330D-06 5.153694034580D+03
    0.000000000000D+00-2.775341272350D-07 1.119863543910D+00-3.539025783540D-08
    9.753109905090D-01 2.104062500000D+02 1.277607517820D+00-8.188555371910D-09
   -8.357490980190D-11 1.000000000000D+00 1.789000000000D+03 0.000000000000D+00
    2.400000000000D+00 0.000000000000D+00-6.053596735000D-09 4.100000000000D+01
   -8.640000000000D+02 4.000000000000D+00
 2 14  4 19  2  0  0.0 4.905099049210D-04 2.160049916710D-12 0.000000000000D+00
    1.030000000000D+02 6.968750000000D+00 5.495943213810D-09 1.367678914370D+00
    4.637986421590D-07 1.346688461490D-02 6.113201379780D-06 5.153583375930D+03
    5.256000000000D+05-1.955777406690D-07-9.746905552480D-01 2.030283212660D-07
    9.390814336770D-01 2.555625000000D+02-2.441333228330D+00-8.666075262530D-09
   -1.078616357270D-10 1.000000000000D+00 1.788000000000D+03 0.000000000000D+00
    2.400000000000D+00 0.000000000000D+00-2.048909664150D-08 1.030000000000D+02
    5.184060000000D+05 4.000000000000D+00
 5 14  4 19  2  0  0.0-3.780764527620D-04 2.273736754430D-12 0.000000000000D+00
    5.500000000000D+01-8.375000000000D+00 4.744126183330D-09-2.591490472520D+00
   -4.302710294720D-07 3.576358663850D-03 9.689480066300D-06 5.153575563430D+03
    5.256000000000D+05-2.980232238770D-08 9.266080982040D-02-7.450580596920D-09
    9.478351551040D-01 1.867187500000D+02 3.258607728610D-01-8.063550164950D-09
   -4.978778814690D-10 1.000000000000D+00 1.788000000000D+03 0.000000000000D+00
    2.400000000000D+00 0.000000000000D+00-1.024454832080D-08 5.500000000000D+01
    5.184060000000D+05 4.000000000000D+00
10 14  4 19  2  0  0.0-1.221587881450D-04-1.364242052660D-12 0.000000000000D+00
    1.800000000000D+02-1.365625000000D+01 4.745911972000D-09-2.313676505390D+00
   -7.133930921550D-07 1.351543108470D-02 9.592622518540D-06 5.153724487300D+03
    5.256000000000D+05 5.774199962620D-08 1.101404777130D-01-1.266598701480D-07
    9.426407748060D-01 1.837500000000D+02 8.615790708550D-01-7.903543500030D-09
   -4.243033882250D-10 1.000000000000D+00 1.788000000000D+03 0.000000000000D+00
    2.400000000000D+00 0.000000000000D+00-2.793967723850D-09 1.800000000000D+02
    5.184060000000D+05 4.000000000000D+00
12 14  4 19  2  0  0.0 1.994990743700D-04 2.387423592150D-12 0.000000000000D+00
    6.200000000000D+01-1.041875000000D+02 4.025524822120D-09-2.915058036440D-01
   -5.349516868590D-06 5.078389192930D-03 7.985159754750D-06 5.153643571850D+03
    5.256000000000D+05 3.352761268620D-08-3.006288301090D+00 4.470348358150D-08
    9.875499855240D-01 2.424062500000D+02 3.986278351690D-01-7.876042354490D-09
   -1.200049986900D-10 1.000000000000D+00 1.788000000000D+03 0.000000000000D+00
    2.400000000000D+00 0.000000000000D+00-1.210719347000D-08 6.200000000000D+01
    5.184060000000D+05 4.000000000000D+00
25 14  4 19  2  0  0.0 2.210121601820D-05 9.094947017730D-13 0.000000000000D+00
    9.200000000000D+01-1.063125000000D+02 4.272677974190D-09-1.069052528130D+00
   -5.479902029040D-06 3.492084098980D-03 7.644295692440D-06 5.153624666210D+03
    5.256000000000D+05 4.842877388000D-08-3.048249698240D+00 3.539025783540D-08
    9.762651876040D-01 2.398750000000D+02 6.466056963280D-01-7.982118201550D-09
   -1.275053111080D-10 1.000000000000D+00 1.788000000000D+03 0.000000000000D+00
    2.400000000000D+00 0.000000000000D+00 5.122274160390D-09 9.200000000000D+01
    5.184060000000D+05 4.000000000000D+00
29 14  4 19  1 59 44.0 5.264421924950D-04 2.842170943040D-12 0.000000000000D+00
    1.000000000000D+00-9.718750000000D+00 4.419469802940D-09-5.794174501710D-01
   -3.892928361890D-07 1.660376088690D-03 1.059472560880D-05 5.153722501750D+03
    5.255840000000D+05-2.607703208920D-08-1.946671803770D+00-2.607703208920D-08
    9.688291003980D-01 1.801875000000D+02-9.277456281920D-01-7.893900241200D-09
    4.757341019490D-10 1.000000000000D+00 1.788000000000D+03 0.000000000000D+00
    2.400000000000D+00 0.000000000000D+00-9.778887033460D-09 1.000000000000D+00
    5.184060000000D+05 4.000000000000D+00
24 14  4 19  2  0  0.0-2.693478018050D-05-6.821210263300D-13 0.000000000000D+00
    4.500000000000D+01 2.525000000000D+01 4.860559604670D-09 9.737792055610D-01
    1.184642314910D-06 2.062317100350D-03 1.654028892520D-06 5.153738889690D+03
    5.256000000000D+05 3.911554813390D-08 2.180628990760D+00 2.793967723850D-08
    9.568628298860D-01 3.465000000000D+02 3.265152107260D-01-8.539641424630D-09
    8.357490980190D-11 1.000000000000D+00 1.788000000000D+03 0.000000000000D+00
    2.400000000000D+00 0.000000000000D+00 2.793967723850D-09 4.500000000000D+01
    5.184360000000D+05 4.000000000000D+00
31 14  4 19  2  0  0.0 3.342269919810D-04 0.000000000000D+00 0.000000000000D+00
    5.000000000000D+00 1.628125000000D+01 4.456971365030D-09-1.539393145900D-02
    8.456408977510D-07 8.045910042710D-03 1.432374119760D-06 5.153531911850D+03
    5.256000000000D+05 0.000000000000D+00 2.220637741900D+00-1.359730958940D-07
    9.784448521550D-01 3.556875000000D+02-6.402168434180D-01-8.521426380180D-09
    1.621496113250D-10 1.000000000000D+00 1.788000000000D+03 0.000000000000D+00
    2.400000000000D+00 0.000000000000D+00-1.303851604460D-08 5.000000000000D+00
    5.193060000000D+05 4.000000000000D+00
21 14  4 19  2  0  0.0-3.561587072910D-04-2.273736754430D-12 0.000000000000D+00
    9.600000000000D+01 5.750000000000D+00 5.776312035150D-09-8.056040639800D-01
    5.271285772320D-07 2.140874473840D-02 5.260109901430D-06 5.153759447100D+03
    5.256000000000D+05-9.313225746150D-08-9.570661784250D-01 4.321336746220D-07
    9.320199983280D-01 2.627812500000D+02-2.037096477470D+00-8.941086717860D-09
   -5.035924052160D-11 1.000000000000D+00 1.788000000000D+03 0.000000000000D+00
    2.400000000000D+00 0.000000000000D+00-1.117587089540D-08 9.600000000000D+01
    5.202360000000D+05 4.000000000000D+00
